{"type": "FeatureCollection", "features": [ {"type": "Feature", "properties": {"norad_id": 36200, "name": "FENGYUN 1C DEB", "group": "fengyun-1c-debris", "lat": -80.60603175297378, "lon": 156.04144910753186, "alt_km": 702.0616746093474, "timestamp": "2025-12-16T19:34:24.555647+00:00", "meta": {"OBJECT_NAME": "FENGYUN 1C DEB", "OBJECT_ID": "1999-025DTZ", "EPOCH": "2025-12-15T11:03:42.742368", "MEAN_MOTION": 14.58789977, "ECCENTRICITY": 0.00334445, "INCLINATION": 99.3871, "RA_OF_ASC_NODE": 63.7678, "ARG_OF_PERICENTER": 358.7454, "MEAN_ANOMALY": 1.3652, "EPHEMERIS_TYPE": 0, "CLASSIFICATION_TYPE": "U", "NORAD_CAT_ID": 36200, "ELEMENT_SET_NO": 999, "REV_AT_EPOCH": 73400, "BSTAR": 0.0024385699, "MEAN_MOTION_DOT": 0.00011445, "MEAN_MOTION_DDOT": 0}, "tle": {"line1": "1 36200U 99025DTZ 25349.46091137  .00011445  00000+0  24386-2 0  9999", "line2": "2 36200  99.3871  63.7678 0033444 358.7454   1.3652 14.58789977734007"}}, "geometry": {"type": "Point", "coordinates": [156.04144910753186, -80.60603175297378]}}, {"type": "Feature", "properties": {"norad_id": 36203, "name": "FENGYUN 1C DEB", "group": "fengyun-1c-debris", "lat": 9.814457175543753, "lon": 116.70474420336194, "alt_km": 587.1042290591586, "timestamp": "2025-12-16T19:34:24.555657+00:00", "meta": {"OBJECT_NAME": "FENGYUN 1C DEB", "OBJECT_ID": "1999-025DUC", "EPOCH": "2025-12-15T02:12:21.184704", "MEAN_MOTION": 14.7845544, "ECCENTRICITY": 0.00835918, "INCLINATION": 99.0961, "RA_OF_ASC_NODE": 293.1709, "ARG_OF_PERICENTER": 141.1772, "MEAN_ANOMALY": 219.5481, "EPHEMERIS_TYPE": 0, "CLASSIFICATION_TYPE": "U", "NORAD_CAT_ID": 36203, "ELEMENT_SET_NO": 999, "REV_AT_EPOCH": 63464, "BSTAR": 0.000608336, "MEAN_MOTION_DOT": 4.637e-05, "MEAN_MOTION_DDOT": 0}, "tle": {"line1": "1 36203U 99025DUC 25349.09191186  .00004637  00000+0  60834-3 0  9990", "line2": "2 36203  99.0961 293.1709 0083591 141.1772 219.5481 14.78455440634645"}}, "geometry": {"type": "Point", "coordinates": [116.70474420336194, 9.814457175543753]}}, {"type": "Feature", "properties": {"norad_id": 36204, "name": "FENGYUN 1C DEB", "group": "fengyun-1c-debris", "lat": 18.3891616545593, "lon": 85.07902635173582, "alt_km": 786.3657457222362, "timestamp": "2025-12-16T19:34:24.555668+00:00", "meta": {"OBJECT_NAME": "FENGYUN 1C DEB", "OBJECT_ID": "1999-025DUD", "EPOCH": "2025-12-14T23:57:56.249280", "MEAN_MOTION": 14.34595483, "ECCENTRICITY": 0.0019975, "INCLINATION": 99.2907, "RA_OF_ASC_NODE": 86.2463, "ARG_OF_PERICENTER": 157.0269, "MEAN_ANOMALY": 203.1811, "EPHEMERIS_TYPE": 0, "CLASSIFICATION_TYPE": "U", "NORAD_CAT_ID": 36204, "ELEMENT_SET_NO": 999, "REV_AT_EPOCH": 94460, "BSTAR": 0.00088642407, "MEAN_MOTION_DOT": 2.46e-05, "MEAN_MOTION_DDOT": 0}, "tle": {"line1": "1 36204U 99025DUD 25348.99856770  .00002460  00000+0  88642-3 0  9995", "line2": "2 36204  99.2907  86.2463 0019975 157.0269 203.1811 14.34595483944608"}}, "geometry": {"type": "Point", "coordinates": [85.07902635173582, 18.3891616545593]}}, {"type": "Feature", "properties": {"norad_id": 36206, "name": "FENGYUN 1C DEB", "group": "fengyun-1c-debris", "lat": -23.200183505277213, "lon": -169.856312415001, "alt_km": 846.2684541275357, "timestamp": "2025-12-16T19:34:24.555678+00:00", "meta": {"OBJECT_NAME": "FENGYUN 1C DEB", "OBJECT_ID": "1999-025DUF", "EPOCH": "2025-12-15T20:39:35.858016", "MEAN_MOTION": 14.21590908, "ECCENTRICITY": 0.00302166, "INCLINATION": 98.4786, "RA_OF_ASC_NODE": 12.8921, "ARG_OF_PERICENTER": 10.0939, "MEAN_ANOMALY": 350.084, "EPHEMERIS_TYPE": 0, "CLASSIFICATION_TYPE": "U", "NORAD_CAT_ID": 36206, "ELEMENT_SET_NO": 999, "REV_AT_EPOCH": 64465, "BSTAR": 0.00060953151, "MEAN_MOTION_DOT": 1.301e-05, "MEAN_MOTION_DDOT": 0}, "tle": {"line1": "1 36206U 99025DUF 25349.86083169  .00001301  00000+0  60953-3 0  9996", "line2": "2 36206  98.4786  12.8921 0030216  10.0939 350.0840 14.21590908644652"}}, "geometry": {"type": "Point", "coordinates": [-169.856312415001, -23.200183505277213]}}, {"type": "Feature", "properties": {"norad_id": 36211, "name": "FENGYUN 1C DEB", "group": "fengyun-1c-debris", "lat": 46.63385364171623, "lon": -25.246592136402235, "alt_km": 989.1417726222462, "timestamp": "2025-12-16T19:34:24.555689+00:00", "meta": {"OBJECT_NAME": "FENGYUN 1C DEB", "OBJECT_ID": "1999-025DUL", "EPOCH": "2025-12-15T06:17:32.807328", "MEAN_MOTION": 14.26001861, "ECCENTRICITY": 0.02666188, "INCLINATION": 98.5048, "RA_OF_ASC_NODE": 342.3588, "ARG_OF_PERICENTER": 221.4218, "MEAN_ANOMALY": 136.6477, "EPHEMERIS_TYPE": 0, "CLASSIFICATION_TYPE": "U", "NORAD_CAT_ID": 36211, "ELEMENT_SET_NO": 999, "REV_AT_EPOCH": 94405, "BSTAR": 0.00040919287, "MEAN_MOTION_DOT": 1.368e-05, "MEAN_MOTION_DDOT": 0}, "tle": {"line1": "1 36211U 99025DUL 25349.26218527  .00001368  00000+0  40919-3 0  9997", "line2": "2 36211  98.5048 342.3588 0266618 221.4218 136.6477 14.26001861944056"}}, "geometry": {"type": "Point", "coordinates": [-25.246592136402235, 46.63385364171623]}}, {"type": "Feature", "properties": {"norad_id": 36216, "name": "FENGYUN 1C DEB", "group": "fengyun-1c-debris", "lat": -45.46329962459326, "lon": 19.758058310626154, "alt_km": 815.9403674439218, "timestamp": "2025-12-16T19:34:24.555699+00:00", "meta": {"OBJECT_NAME": "FENGYUN 1C DEB", "OBJECT_ID": "1999-025DUR", "EPOCH": "2025-12-15T08:14:51.138816", "MEAN_MOTION": 14.18860863, "ECCENTRICITY": 0.0044833, "INCLINATION": 98.6078, "RA_OF_ASC_NODE": 9.4737, "ARG_OF_PERICENTER": 10.2583, "MEAN_ANOMALY": 349.9498, "EPHEMERIS_TYPE": 0, "CLASSIFICATION_TYPE": "U", "NORAD_CAT_ID": 36216, "ELEMENT_SET_NO": 999, "REV_AT_EPOCH": 64409, "BSTAR": 0.0003670311, "MEAN_MOTION_DOT": 7.29e-06, "MEAN_MOTION_DDOT": 0}, "tle": {"line1": "1 36216U 99025DUR 25349.34364744  .00000729  00000+0  36703-3 0  9990", "line2": "2 36216  98.6078   9.4737 0044833  10.2583 349.9498 14.18860863644093"}}, "geometry": {"type": "Point", "coordinates": [19.758058310626154, -45.46329962459326]}}, {"type": "Feature", "properties": {"norad_id": 36218, "name": "FENGYUN 1C DEB", "group": "fengyun-1c-debris", "lat": -77.50204150542098, "lon": -33.8741678555824, "alt_km": 617.3333639914645, "timestamp": "2025-12-16T19:34:24.555709+00:00", "meta": {"OBJECT_NAME": "FENGYUN 1C DEB", "OBJECT_ID": "1999-025DUT", "EPOCH": "2025-12-12T19:42:04.442400", "MEAN_MOTION": 14.70989932, "ECCENTRICITY": 0.0072811, "INCLINATION": 99.0771, "RA_OF_ASC_NODE": 187.8366, "ARG_OF_PERICENTER": 295.4261, "MEAN_ANOMALY": 63.9419, "EPHEMERIS_TYPE": 0, "CLASSIFICATION_TYPE": "U", "NORAD_CAT_ID": 36218, "ELEMENT_SET_NO": 999, "REV_AT_EPOCH": 59144, "BSTAR": 0.0015985689, "MEAN_MOTION_DOT": 0.00010165, "MEAN_MOTION_DDOT": 0}, "tle": {"line1": "1 36218U 99025DUT 25346.82088475  .00010165  00000+0  15986-2 0  9990", "line2": "2 36218  99.0771 187.8366 0072811 295.4261  63.9419 14.70989932591449"}}, "geometry": {"type": "Point", "coordinates": [-33.8741678555824, -77.50204150542098]}}, {"type": "Feature", "properties": {"norad_id": 36224, "name": "FENGYUN 1C DEB", "group": "fengyun-1c-debris", "lat": 74.96723116396372, "lon": -106.79415064736388, "alt_km": 885.6897761503506, "timestamp": "2025-12-16T19:34:24.555720+00:00", "meta": {"OBJECT_NAME": "FENGYUN 1C DEB", "OBJECT_ID": "1999-025DUZ", "EPOCH": "2025-12-15T09:06:00.293184", "MEAN_MOTION": 14.12763691, "ECCENTRICITY": 0.01144406, "INCLINATION": 98.7801, "RA_OF_ASC_NODE": 36.6648, "ARG_OF_PERICENTER": 344.4921, "MEAN_ANOMALY": 15.2756, "EPHEMERIS_TYPE": 0, "CLASSIFICATION_TYPE": "U", "NORAD_CAT_ID": 36224, "ELEMENT_SET_NO": 999, "REV_AT_EPOCH": 64469, "BSTAR": 0.00011686828, "MEAN_MOTION_DOT": 1.87e-06, "MEAN_MOTION_DDOT": 0}, "tle": {"line1": "1 36224U 99025DUZ 25349.37917006  .00000187  00000+0  11687-3 0  9999", "line2": "2 36224  98.7801  36.6648 0114440 344.4921  15.2756 14.12763691644691"}}, "geometry": {"type": "Point", "coordinates": [-106.79415064736388, 74.96723116396372]}}, {"type": "Feature", "properties": {"norad_id": 36225, "name": "FENGYUN 1C DEB", "group": "fengyun-1c-debris", "lat": 27.191970968197108, "lon": -62.62541287290481, "alt_km": 563.2141006208303, "timestamp": "2025-12-16T19:34:24.555730+00:00", "meta": {"OBJECT_NAME": "FENGYUN 1C DEB", "OBJECT_ID": "1999-025DVA", "EPOCH": "2025-12-11T03:22:25.516704", "MEAN_MOTION": 15.05886228, "ECCENTRICITY": 0.00436396, "INCLINATION": 98.8181, "RA_OF_ASC_NODE": 106.3139, "ARG_OF_PERICENTER": 296.8088, "MEAN_ANOMALY": 62.8675, "EPHEMERIS_TYPE": 0, "CLASSIFICATION_TYPE": "U", "NORAD_CAT_ID": 36225, "ELEMENT_SET_NO": 999, "REV_AT_EPOCH": 66748, "BSTAR": 0.0037986718, "MEAN_MOTION_DOT": 0.00056719, "MEAN_MOTION_DDOT": 0}, "tle": {"line1": "1 36225U 99025DVA 25345.14057311  .00056719  00000+0  37987-2 0  9997", "line2": "2 36225  98.8181 106.3139 0043639 296.8088  62.8675 15.05886228667484"}}, "geometry": {"type": "Point", "coordinates": [-62.62541287290481, 27.191970968197108]}}, {"type": "Feature", "properties": {"norad_id": 36226, "name": "FENGYUN 1C DEB", "group": "fengyun-1c-debris", "lat": -37.46562727683412, "lon": -153.516757395323, "alt_km": 924.8318088827209, "timestamp": "2025-12-16T19:34:24.555740+00:00", "meta": {"OBJECT_NAME": "FENGYUN 1C DEB", "OBJECT_ID": "1999-025DVB", "EPOCH": "2025-12-15T08:29:16.767456", "MEAN_MOTION": 14.10303603, "ECCENTRICITY": 0.00952219, "INCLINATION": 98.6088, "RA_OF_ASC_NODE": 31.7504, "ARG_OF_PERICENTER": 13.1381, "MEAN_ANOMALY": 347.2239, "EPHEMERIS_TYPE": 0, "CLASSIFICATION_TYPE": "U", "NORAD_CAT_ID": 36226, "ELEMENT_SET_NO": 999, "REV_AT_EPOCH": 63799, "BSTAR": 0.0011124334, "MEAN_MOTION_DOT": 2.017e-05, "MEAN_MOTION_DDOT": 0}, "tle": {"line1": "1 36226U 99025DVB 25349.35366629  .00002017  00000+0  11124-2 0  9997", "line2": "2 36226  98.6088  31.7504 0095221  13.1381 347.2239 14.10303603637991"}}, "geometry": {"type": "Point", "coordinates": [-153.516757395323, -37.46562727683412]}}]}